OBJECT_NAME,OBJECT_ID,EPOCH,MEAN_MOTION,ECCENTRICITY,INCLINATION,RA_OF_ASC_NODE,ARG_OF_PERICENTER,MEAN_ANOMALY,EPHEMERIS_TYPE,CLASSIFICATION_TYPE,NORAD_CAT_ID,ELEMENT_SET_NO,REV_AT_EPOCH,BSTAR,MEAN_MOTION_DOT,MEAN_MOTION_DDOT
GALAXY 33 (G-33),2022-128A,2024-07-07T17:42:54.381888,1.00271969,.0001651,0.0189,69.3387,34.9839,314.5587,0,U,54026,999,663,0,.76E-6,0
GALAXY 34 (G-34),2022-128B,2024-07-07T10:40:56.843904,1.00271339,.0001506,0.0164,43.9230,62.3212,210.8697,0,U,54027,999,679,0,.56E-6,0
GALAXY 31 (G-31),2022-153A,2024-07-07T16:03:15.760224,1.00271225,.0001097,0.0151,316.2258,143.9775,305.7144,0,U,54243,999,604,0,.1E-6,0
GALAXY 32 (G-32),2022-153B,2024-07-08T01:25:42.750048,1.00271610,.0001612,0.0151,52.2128,355.3940,169.3086,0,U,54244,999,605,0,-.177E-5,0
GALAXY 35 (G-35),2022-170A,2024-07-07T19:41:42.737856,1.00271436,.0001725,0.0158,308.9920,171.4670,8.1173,0,U,54741,999,579,0,-.165E-5,0
GALAXY 36 (G-36),2022-170B,2024-07-07T20:22:42.778272,1.00271488,.0002828,0.0165,51.8760,53.8204,37.2581,0,U,54742,999,580,0,-.188E-5,0
GALAXY 37 (G-37),2023-112A,2024-07-08T04:02:56.040288,1.00271478,.0001783,0.0153,42.7442,59.5760,118.0064,0,U,57493,999,340,0,.45E-6,0
