GALAXY 33 (G-33)        
1 54026U 22128A   24189.73812942  .00000076  00000+0  00000+0 0  9993
2 54026   0.0189  69.3387 0001651  34.9839 314.5587  1.00271969  6635
GALAXY 34 (G-34)        
1 54027U 22128B   24189.44510236  .00000056  00000+0  00000+0 0  9991
2 54027   0.0164  43.9230 0001506  62.3212 210.8697  1.00271339  6791
GALAXY 31 (G-31)        
1 54243U 22153A   24189.66893241  .00000010  00000+0  00000+0 0  9993
2 54243   0.0151 316.2258 0001097 143.9775 305.7144  1.00271225  6041
GALAXY 32 (G-32)        
1 54244U 22153B   24190.05952257 -.00000177  00000+0  00000+0 0  9997
2 54244   0.0151  52.2128 0001612 355.3940 169.3086  1.00271610  6059
GALAXY 35 (G-35)        
1 54741U 22170A   24189.82063354 -.00000165  00000+0  00000+0 0  9999
2 54741   0.0158 308.9920 0001725 171.4670   8.1173  1.00271436  5794
GALAXY 36 (G-36)        
1 54742U 22170B   24189.84910623 -.00000188  00000+0  00000+0 0  9997
2 54742   0.0165  51.8760 0002828  53.8204  37.2581  1.00271488  5805
GALAXY 37 (G-37)        
1 57493U 23112A   24190.16870417  .00000045  00000+0  00000+0 0  9994
2 57493   0.0153  42.7442 0001783  59.5760 118.0064  1.00271478  3400
